ONEWEB-0531             
1 54146U 22138AK  26169.74816962 -.00000016  00000+0 -72136-4 0  9994
2 54146  87.9193 274.1240 0002846 102.0366 258.1086 13.20772021179515
ONEWEB-0535             
1 54147U 22138AL  26169.74726448 -.00000063  00000+0 -18975-3 0  9996
2 54147  87.9180 304.6472 0002155  92.8279 267.3101 13.19724707177042
ONEWEB-0536             
1 54148U 22138AM  26169.73469359 -.00000026  00000+0 -96167-4 0  9990
2 54148  87.9183 274.1488 0002975 105.4918 254.6544 13.20771346179501
ONEWEB-0527             
1 54642U 22166A   26169.76625382  .00000056  00000+0  10415-3 0  9995
2 54642  87.9252 243.6831 0002004 100.5514 259.5846 13.21822785171743
ONEWEB-0528             
1 54643U 22166B   26169.76709356  .00000116  00000+0  25055-3 0  9993
2 54643  87.9252 243.6853 0001870 104.2924 255.8417 13.21824585171758
ONEWEB-0539             
1 54644U 22166C   26169.72925780 -.00000097  00000+0 -26668-3 0  9992
2 54644  87.9261 243.6645 0001956  92.8831 267.2526 13.21826938171743
ONEWEB-0540             
1 54645U 22166D   26169.73611986 -.00000090  00000+0 -24907-3 0  9991
2 54645  87.9253 243.6934 0002024  95.0432 265.0933 13.21827025171730
ONEWEB-0542             
1 54646U 22166E   26169.73934152 -.00000318  00000+0 -80235-3 0  9994
2 54646  87.9264 243.6610 0001943  89.6590 270.4766 13.21825831171745
ONEWEB-0545             
1 54647U 22166F   26169.70402931  .00001940  00000+0  46664-2 0  9994
2 54647  87.9258 243.6796 0001990  80.4333 279.7026 13.21817504171705
ONEWEB-0580             
1 54648U 22166G   26169.75447409 -.00000089  00000+0 -24677-3 0  9995
2 54648  87.9253 243.6698 0002219  88.4355 271.7033 13.21827508171759
ONEWEB-0582             
1 54649U 22166H   26169.72084830 -.00000006  00000+0 -47177-4 0  9998
2 54649  87.9254 243.6688 0002107  86.5019 273.6356 13.21826902171725
ONEWEB-0583             
1 54650U 22166J   26169.73261367 -.00000313  00000+0 -79034-3 0  9990
2 54650  87.9252 243.6899 0002021  95.0691 265.0674 13.21825718171738
ONEWEB-0584             
1 54651U 22166K   26169.75280360  .00000001  00000+0 -29686-4 0  9999
2 54651  87.9247 243.6714 0002093  95.7893 264.3480 13.21825908171726
ONEWEB-0585             
1 54652U 22166L   26169.70066514  .00000067  00000+0  12971-3 0  9997
2 54652  87.9255 243.6691 0001999 103.4775 256.6582 13.21826790171727
ONEWEB-0586             
1 54653U 22166M   26169.71411127 -.00000012  00000+0 -60329-4 0  9996
2 54653  87.9255 243.6917 0001965  93.8713 266.2645 13.21824589171727
ONEWEB-0587             
1 54654U 22166N   26169.72420377 -.00000054  00000+0 -16113-3 0  9992
2 54654  87.9265 243.6633 0002057 108.6938 251.4419 13.21824399171882
ONEWEB-0589             
1 54655U 22166P   26169.71074875 -.00000016  00000+0 -69303-4 0  9998
2 54655  87.9251 243.6780 0002353  77.5564 282.5833 13.21824086171742
ONEWEB-0590             
1 54656U 22166Q   26169.73584569 -.00000050  00000+0 -15154-3 0  9999
2 54656  87.9261 243.6634 0002492  98.9631 261.1785 13.21827264171737
ONEWEB-0591             
1 54657U 22166R   26169.74776841 -.00000167  00000+0 -43539-3 0  9994
2 54657  87.9252 243.6754 0002123  98.7612 261.3763 13.21826643171760
ONEWEB-0592             
1 54658U 22166S   26169.75111663 -.00000108  00000+0 -29378-3 0  9991
2 54658  87.9262 243.6531 0002029  98.8515 261.2849 13.21827825171647
ONEWEB-0593             
1 54659U 22166T   26169.69728573  .00000031  00000+0  42474-4 0  9995
2 54659  87.9255 243.6755 0001901  95.2368 264.8983 13.21824811171744
ONEWEB-0594             
1 54660U 22166U   26169.71748525 -.00000340  00000+0 -85557-3 0  9992
2 54660  87.9254 243.6877 0001925 103.8186 256.3162 13.21825941171762
ONEWEB-0595             
1 54661U 22166V   26169.69392145  .00000040  00000+0  65533-4 0  9991
2 54661  87.9261 243.6733 0002137 105.1296 255.0075 13.21827406171739
ONEWEB-0596             
1 54662U 22166W   26169.74439763 -.00000033  00000+0 -11224-3 0  9997
2 54662  87.9256 243.6742 0002074 100.9182 259.2186 13.21826870171745
ONEWEB-0597             
1 54663U 22166X   26169.72589289  .00000039  00000+0  62234-4 0  9997
2 54663  87.9254 243.6812 0001961  95.1970 264.9388 13.21827384171744
ONEWEB-0600             
1 54664U 22166Y   26169.70738273 -.00000006  00000+0 -46371-4 0  9995
2 54664  87.9252 243.6763 0001833  96.5584 263.5758 13.21824428171711
ONEWEB-0601             
1 54665U 22166Z   26169.69897536  .00000055  00000+0  10115-3 0  9990
2 54665  87.9250 243.6943 0002043  91.8439 268.2929 13.21826252171901
ONEWEB-0602             
1 54666U 22166AA  26169.74018676 -.00000138  00000+0 -36476-3 0  9999
2 54666  87.9253 243.6920 0001752  96.0388 264.0945 13.21826439171758
ONEWEB-0603             
1 54667U 22166AB  26169.74608272 -.00000053  00000+0 -15964-3 0  9992
2 54667  87.9261 243.6479 0001967  95.9515 264.1843 13.21826662171683
ONEWEB-0604             
1 54668U 22166AC  26169.73429199 -.00000151  00000+0 -39592-3 0  9993
2 54668  87.9263 243.6659 0002020 101.4362 258.6999 13.21827484171649
