OBJECT_NAME,OBJECT_ID,EPOCH,MEAN_MOTION,ECCENTRICITY,INCLINATION,RA_OF_ASC_NODE,ARG_OF_PERICENTER,MEAN_ANOMALY,EPHEMERIS_TYPE,CLASSIFICATION_TYPE,NORAD_CAT_ID,ELEMENT_SET_NO,REV_AT_EPOCH,BSTAR,MEAN_MOTION_DOT,MEAN_MOTION_DDOT
ONEWEB-0531,2022-138AK,2026-06-18T17:57:21.855168,13.20772021,.0002846,87.9193,274.1240,102.0366,258.1086,0,U,54146,999,17951,-.72136E-4,-.16E-6,0
ONEWEB-0535,2022-138AL,2026-06-18T17:56:03.651072,13.19724707,.0002155,87.9180,304.6472,92.8279,267.3101,0,U,54147,999,17704,-.18975E-3,-.63E-6,0
ONEWEB-0536,2022-138AM,2026-06-18T17:37:57.526176,13.20771346,.0002975,87.9183,274.1488,105.4918,254.6544,0,U,54148,999,17950,-.96167E-4,-.26E-6,0
ONEWEB-0527,2022-166A,2026-06-18T18:23:24.330048,13.21822785,.0002004,87.9252,243.6831,100.5514,259.5846,0,U,54642,999,17174,.10415E-3,.56E-6,0
ONEWEB-0528,2022-166B,2026-06-18T18:24:36.883584,13.21824585,.000187,87.9252,243.6853,104.2924,255.8417,0,U,54643,999,17175,.25055E-3,.116E-5,0
ONEWEB-0539,2022-166C,2026-06-18T17:30:07.873920,13.21826938,.0001956,87.9261,243.6645,92.8831,267.2526,0,U,54644,999,17174,-.26668E-3,-.97E-6,0
ONEWEB-0540,2022-166D,2026-06-18T17:40:00.755904,13.21827025,.0002024,87.9253,243.6934,95.0432,265.0933,0,U,54645,999,17173,-.24907E-3,-.9E-6,0
ONEWEB-0542,2022-166E,2026-06-18T17:44:39.107328,13.21825831,.0001943,87.9264,243.6610,89.6590,270.4766,0,U,54646,999,17174,-.80235E-3,-.318E-5,0
ONEWEB-0545,2022-166F,2026-06-18T16:53:48.132384,13.21817504,.000199,87.9258,243.6796,80.4333,279.7026,0,U,54647,999,17170,.46664E-2,.194E-4,0
ONEWEB-0580,2022-166G,2026-06-18T18:06:26.561376,13.21827508,.0002219,87.9253,243.6698,88.4355,271.7033,0,U,54648,999,17175,-.24677E-3,-.89E-6,0
ONEWEB-0582,2022-166H,2026-06-18T17:18:01.293120,13.21826902,.0002107,87.9254,243.6688,86.5019,273.6356,0,U,54649,999,17172,-.47177E-4,-.6E-7,0
ONEWEB-0583,2022-166J,2026-06-18T17:34:57.821088,13.21825718,.0002021,87.9252,243.6899,95.0691,265.0674,0,U,54650,999,17173,-.79034E-3,-.313E-5,0
ONEWEB-0584,2022-166K,2026-06-18T18:04:02.231040,13.21825908,.0002093,87.9247,243.6714,95.7893,264.3480,0,U,54651,999,17172,-.29686E-4,.1E-7,0
ONEWEB-0585,2022-166L,2026-06-18T16:48:57.468096,13.21826790,.0001999,87.9255,243.6691,103.4775,256.6582,0,U,54652,999,17172,.12971E-3,.67E-6,0
ONEWEB-0586,2022-166M,2026-06-18T17:08:19.213728,13.21824589,.0001965,87.9255,243.6917,93.8713,266.2645,0,U,54653,999,17172,-.60329E-4,-.12E-6,0
ONEWEB-0587,2022-166N,2026-06-18T17:22:51.205728,13.21824399,.0002057,87.9265,243.6633,108.6938,251.4419,0,U,54654,999,17188,-.16113E-3,-.54E-6,0
ONEWEB-0589,2022-166P,2026-06-18T17:03:28.692000,13.21824086,.0002353,87.9251,243.6780,77.5564,282.5833,0,U,54655,999,17174,-.69303E-4,-.16E-6,0
ONEWEB-0590,2022-166Q,2026-06-18T17:39:37.067616,13.21827264,.0002492,87.9261,243.6634,98.9631,261.1785,0,U,54656,999,17173,-.15154E-3,-.5E-6,0
ONEWEB-0591,2022-166R,2026-06-18T17:56:47.190624,13.21826643,.0002123,87.9252,243.6754,98.7612,261.3763,0,U,54657,999,17176,-.43539E-3,-.167E-5,0
ONEWEB-0592,2022-166S,2026-06-18T18:01:36.476832,13.21827825,.0002029,87.9262,243.6531,98.8515,261.2849,0,U,54658,999,17164,-.29378E-3,-.108E-5,0
ONEWEB-0593,2022-166T,2026-06-18T16:44:05.487072,13.21824811,.0001901,87.9255,243.6755,95.2368,264.8983,0,U,54659,999,17174,.42474E-4,.31E-6,0
ONEWEB-0594,2022-166U,2026-06-18T17:13:10.725600,13.21825941,.0001925,87.9254,243.6877,103.8186,256.3162,0,U,54660,999,17176,-.85557E-3,-.34E-5,0
ONEWEB-0595,2022-166V,2026-06-18T16:39:14.813280,13.21827406,.0002137,87.9261,243.6733,105.1296,255.0075,0,U,54661,999,17173,.65533E-4,.4E-6,0
ONEWEB-0596,2022-166W,2026-06-18T17:51:55.955232,13.21826870,.0002074,87.9256,243.6742,100.9182,259.2186,0,U,54662,999,17174,-.11224E-3,-.33E-6,0
ONEWEB-0597,2022-166X,2026-06-18T17:25:17.145696,13.21827384,.0001961,87.9254,243.6812,95.1970,264.9388,0,U,54663,999,17174,.62234E-4,.39E-6,0
ONEWEB-0600,2022-166Y,2026-06-18T16:58:37.867872,13.21824428,.0001833,87.9252,243.6763,96.5584,263.5758,0,U,54664,999,17171,-.46371E-4,-.6E-7,0
ONEWEB-0601,2022-166Z,2026-06-18T16:46:31.471104,13.21826252,.0002043,87.9250,243.6943,91.8439,268.2929,0,U,54665,999,17190,.10115E-3,.55E-6,0
ONEWEB-0602,2022-166AA,2026-06-18T17:45:52.136064,13.21826439,.0001752,87.9253,243.6920,96.0388,264.0945,0,U,54666,999,17175,-.36476E-3,-.138E-5,0
ONEWEB-0603,2022-166AB,2026-06-18T17:54:21.547008,13.21826662,.0001967,87.9261,243.6479,95.9515,264.1843,0,U,54667,999,17168,-.15964E-3,-.53E-6,0
ONEWEB-0604,2022-166AC,2026-06-18T17:37:22.827936,13.21827484,.000202,87.9263,243.6659,101.4362,258.6999,0,U,54668,999,17164,-.39592E-3,-.151E-5,0
